satname,norad_id,inclination_deg,eccentricity,mean_motion_rev_per_day,perigee_km,apogee_km,l1,l2
STARLINK-1008,44714,53.1513,0.0003034,15.47704531,421.3793180495859,425.50651674346136,1 44714U 19074B   26150.30936191  .00080211  00000+0  15180-2 0  9995,2 44714  53.1513 154.1788 0003034  54.2939 305.8351 15.47704531361446
STARLINK-1012,44718,53.1556,0.0002822,15.48017211,420.60785013520126,424.4461448953998,1 44718U 19074F   26150.82532925  .00076016  00000+0  14243-2 0  9990,2 44718  53.1556 152.0155 0002822  51.8786 308.2477 15.48017211361516
STARLINK-1017,44723,53.0464,0.0005612,15.30658244,470.00184327394345,477.69251031397744,1 44723U 19074L   26150.51919821  .00042312  00000+0  14119-2 0  9990,2 44723  53.0464 151.8820 0005612  11.2177 348.8947 15.30658244361474
STARLINK-1020,44725,53.1573,0.0004402,15.52983676,405.03290868972545,411.0074414666642,1 44725U 19074N   26150.48799230  .00046813  00000+0  74106-3 0  9991,2 44725  53.1573 177.9879 0004402  31.9556 328.1721 15.52983676361102
STARLINK-1036,44741,53.0411,0.0003131,15.68124532,362.1565283006157,366.3786220455895,1 44741U 19074AE  26150.25339711  .00065719  00000+0  57937-3 0  9997,2 44741  53.0411 149.2629 0003131 350.3174   9.7781 15.68124532361481
STARLINK-1039,44744,53.0589,0.0003669,15.2789021,479.60334443568627,484.63740129589405,1 44744U 19074AH  26150.40294257  .00039408  00000+0  14332-2 0  9999,2 44744  53.0589 197.6402 0003669  15.3719 344.7390 15.27890210360828
STARLINK-1042,44747,53.0429,0.0003468,15.53717484,403.53061109651844,408.23600758307566,1 44747U 19074AL  26150.76418582  .00030080  00000+0  46731-3 0  9996,2 44747  53.0429  59.7748 0003468  76.3569 283.7826 15.53717484362819
STARLINK-1043,44748,53.0473,0.0001104,15.61798711,381.7149726949574,383.20771280903773,1 44748U 19074AM  26150.44442813  .00047090  00000+0  53663-3 0  9997,2 44748  53.0473 158.1706 0001104  65.3230 294.7897 15.61798711361387
STARLINK-1046,44751,53.0467,0.0006877,15.53966085,400.4948857457366,409.82463210796504,1 44751U 19074AQ  26150.30692517  .00100776  00000+0  15200-2 0  9999,2 44751  53.0467 179.9533 0006877  32.0442 328.0985 15.53966085361067
STARLINK-1047,44752,53.0673,0.0003732,15.34364507,460.2556939681908,465.3617758647333,1 44752U 19074AR  26150.55107113  .00030414  00000+0  90848-3 0  9993,2 44752  53.0673 123.0607 0003732  92.1492 267.9937 15.34364507361909
STARLINK-1048,44753,53.0437,0.0007148,15.6633814,364.569893931588,374.2161628601816,1 44753U 19074AS  26150.36386669  .00064489  00000+0  61076-3 0  9998,2 44753  53.0437 130.6063 0007148  29.5410 330.6007 15.66338140361755
STARLINK-1063,44768,53.1557,0.0002237,15.47739962,421.8176252143976,424.86060562843795,1 44768U 19074BH  26150.64483067  .00066724  00000+0  12649-2 0  9990,2 44768  53.1557 193.5993 0002237  27.6013 332.5113 15.47739962360931
STARLINK-1067,44771,53.0418,0.0007056,15.73185723,345.05164677657194,354.54610988807417,1 44771U 19074BL  26150.33502915  .00092018  00000+0  65237-3 0  9991,2 44771  53.0418 163.0436 0007056 358.5225   1.5771 15.73185723361303
STARLINK-1068,44772,53.0409,0.0002411,15.74000629,345.85496683265046,349.09805766825775,1 44772U 19074BM  26150.85154150  .00083935  00000+0  57624-3 0  9992,2 44772  53.0409 134.1715 0002411  83.6767 276.4526 15.74000629361741
STARLINK-1114,44927,53.0413,0.0002825,15.64418606,373.0036217503339,376.8190940725535,1 44927U 20001P   26150.83335647  .00084194  00000+0  85780-3 0  9998,2 44927  53.0413 290.7245 0002825 336.9363 114.5069 15.64418606  5993
STARLINK-1123,44930,53.1449,0.0003809,15.56628604,394.8417959060889,400.003417214366,1 44930U 20001S   26150.81771779  .00095628  00000+0  13100-2 0  9990,2 44930  53.1449 317.2592 0003809 269.4793  90.5782 15.56628604352539
STARLINK-1094,44941,53.1532,0.0005025,15.53396209,403.4092222466097,410.22810268738885,1 44941U 20001AD  26150.83335647  .00157530  00000+0  24054-2 0  9995,2 44941  53.1532 291.9997 0005025 306.5384 110.0905 15.53396209  5969
STARLINK-1122,44949,53.1554,0.0003925,15.52923666,405.53136470355093,410.85863532356234,1 44949U 20001AM  26150.76818834  .00093113  00000+0  14614-2 0  9996,2 44949  53.1554 292.8978 0003925 301.1166  58.9459 15.52923666352877
STARLINK-1080,44961,53.046,0.0001693,15.66758704,367.04333196438165,369.32763675758724,1 44961U 20001AZ  26150.58242463  .00056566  00000+0  52846-3 0  9990,2 44961  53.0460 252.4730 0001693  30.3760 329.7353 15.66758704353412
STARLINK-1090,44968,53.1499,0.0002815,15.49365642,416.66735077367684,420.493902797557,1 44968U 20001BG  26150.86465088  .00077051  00000+0  13769-2 0  9990,2 44968  53.1499 279.9511 0002815 316.6854  43.3933 15.49365642353064
STARLINK-1132,45044,53.1519,0.0003113,15.54316778,402.0280762183611,406.2507215042915,1 45044U 20006A   26150.47996810  .00088633  00000+0  13238-2 0  9999,2 45044  53.1519 223.1318 0003113 355.5752   4.5231 15.54316778349607
STARLINK-1131,45047,53.1577,0.0004008,15.51109711,410.76276634266287,416.2069304163233,1 45047U 20006D   26150.67029007  .00069285  00000+0  11659-2 0  9996,2 45047  53.1577 254.8565 0004008 337.4828  22.6005 15.51109711349172
STARLINK-1134,45048,53.0258,0.0008186,15.56242384,392.9961844987147,404.09096593646063,1 45048U 20006E   26150.83335647  .00118458  00000+0  16380-2 0  9998,2 45048  53.0258 204.3625 0008186  33.0226 104.0946 15.56242384  5859
STARLINK-1156,45054,53.1577,0.0003399,15.3429325,460.69523265104544,465.3458515481634,1 45054U 20006L   26150.72502917  .00051736  00000+0  15368-2 0  9999,2 45054  53.1577 259.2076 0003399 329.5248  30.5557 15.34293250349113
STARLINK-1166,45060,53.046,0.000462,15.58027526,390.2378045404739,396.4946735333442,1 45060U 20006S   26150.82206524  .00094846  00000+0  12331-2 0  9998,2 45060  53.0460 237.5046 0004620 339.6873  20.3954 15.58027526349418
STARLINK-1169,45061,53.1557,0.0004064,15.37443191,450.89671048466516,456.4496057811948,1 45061U 20006T   26150.71146719  .00056825  00000+0  15240-2 0  9993,2 45061  53.1557 258.0463 0004064 296.8979  63.1610 15.37443191349131
STARLINK-1171,45062,53.0398,0.0002849,15.73133358,348.0313482174379,351.8650111528232,1 45062U 20006U   26150.40349763  .00080531  00000+0  57417-3 0  9998,2 45062  53.0398 206.3665 0002849 336.3713  23.7174 15.73133358349812
STARLINK-1133,45064,53.158,0.0004432,15.34280053,460.02775278549143,466.0917896034789,1 45064U 20006W   26150.63088494  .00048174  00000+0  14329-2 0  9997,2 45064  53.1580 236.4275 0004432 342.6405  17.4446 15.34280053349439
STARLINK-1167,45071,53.1567,0.0003238,15.36603511,453.94882294145646,458.3747148241855,1 45071U 20006AD  26150.64618125  .00052357  00000+0  14446-2 0  9994,2 45071  53.1567 235.5602 0003238 298.7940  61.2738 15.36603511349446
STARLINK-1168,45072,53.1573,0.000369,15.34405052,460.1639601317511,465.21248914753505,1 45072U 20006AE  26150.67646990  .00047952  00000+0  14209-2 0  9991,2 45072  53.1573 236.4191 0003690 344.3013  15.7875 15.34405052349431
STARLINK-1172,45074,53.1568,0.0002936,15.37604462,451.18976954363643,455.2011279575436,1 45074U 20006AG  26150.60910953  .00052627  00000+0  14058-2 0  9996,2 45074  53.1568 235.1298 0002936 305.9904  54.0828 15.37604462349449
STARLINK-1153,45080,53.1592,0.0004438,15.36611618,453.1046797122717,459.1707819633639,1 45080U 20006AN  26150.62951872  .00050874  00000+0  14037-2 0  9999,2 45080  53.1592 235.5545 0004438 310.6515  49.4102 15.36611618349445
STARLINK-1151,45081,53.048,0.0004246,15.76603921,337.2183566036383,342.92345875884257,1 45081U 20006AP  26150.51694198  .00089229  00000+0  54619-3 0  9990,2 45081  53.0480 194.7050 0004246 347.0871  13.0039 15.76603921349981
STARLINK-1185,45087,53.1583,0.0005252,15.44953025,427.93967257081295,435.0925321895529,1 45087U 20006AV  26150.62104278  .00056984  00000+0  11912-2 0  9993,2 45087  53.1583 216.2050 0005252 351.0546   9.0366 15.44953025349711
STARLINK-1183,45088,53.1587,0.0004361,15.34164954,460.4183405147078,466.385530774377,1 45088U 20006AW  26150.45960730  .00044868  00000+0  13408-2 0  9998,2 45088  53.1587 222.0368 0004361 349.4656  10.6254 15.34164954349613
STARLINK-1152,45096,53.0331,0.0004465,15.47748162,420.27824413867893,426.35194085727926,1 45096U 20006BE  26150.45317430  .00069026  00000+0  13071-2 0  9999,2 45096  53.0331 177.9617 0004465  37.6966 322.4353 15.47748162350213
STARLINK-1184,45098,53.0505,0.0004086,15.13891425,521.525797833182,527.1665070653635,1 45098U 20006BG  26150.62132976  .00026014  00000+0  14318-2 0  9995,2 45098  53.0505 234.2979 0004086  14.5188 345.5921 15.13891425349438
STARLINK-1193,45100,53.0456,0.0004226,15.66962303,364.7503460345115,370.45184387236714,1 45100U 20006BJ  26150.41962546  .00051748  00000+0  48008-3 0  9996,2 45100  53.0456 191.1060 0004226 317.1205  42.9481 15.66962303350025
STARLINK-1143,45179,53.035,0.0006374,15.86394685,308.13597170726734,316.66506893817404,1 45179U 20012B   26150.83335647  .00313875  00000+0  11824-2 0  9998,2 45179  53.0350 281.4145 0006374 329.1520 196.0020 15.86394685  5931
STARLINK-1202,45183,53.1572,0.0002253,15.33876207,462.71891423664783,465.8020985530302,1 45183U 20012F   26150.07777009  .00053722  00000+0  16163-2 0  9994,2 45183  53.1572  20.5619 0002253 121.2105 238.9118 15.33876207347427
STARLINK-1216,45185,53.1568,0.0002887,15.34241448,461.1994441083998,465.14961738625334,1 45185U 20012H   26150.84030088  .00050440  00000+0  15014-2 0  9998,2 45185  53.1568  16.8775 0002887 139.3753 220.7466 15.34241448347482
STARLINK-1225,45187,53.158,0.0002667,15.34252357,461.31753237135763,464.9666706441021,1 45187U 20012K   26150.83874425  .00036999  00000+0  11059-2 0  9998,2 45187  53.1580  17.3423 0002667 147.3580 212.7587 15.34252357347528
STARLINK-1230,45189,53.1558,0.0002571,15.34117556,461.78385620147856,465.30184798142363,1 45189U 20012M   26150.84926959  .00043594  00000+0  13054-2 0  9997,2 45189  53.1558  17.3623 0002571 152.7170 207.3968 15.34117556344752
